SL-3 R/B                
1 13403U 82079B   26047.86195972  .00006966  00000+0  28024-3 0  9998
2 13403  81.1445 217.6640 0024272 235.9072 123.9858 15.24474827374528
SL-14 R/B               
1 13553U 82092B   26047.79739243  .00000526  00000+0  56338-4 0  9992
2 13553  82.5710 160.9347 0020644  14.9366 147.7244 14.86643228325820
SL-3 R/B                
1 13819U 83010B   26047.40122814  .00016678  00000+0  34394-3 0  9998
2 13819  81.1025  28.3298 0018453 117.8926 242.4190 15.45565090354653
SL-3 R/B                
1 14208U 83075B   26047.80411782  .00012349  00000+0  33168-3 0  9990
2 14208  97.6126  51.6018 0020134 308.1279  51.8149 15.37872809326941
COSMOS 1536             
1 14699U 84013A   26047.70457855  .00006155  00000+0  25571-3 0  9994
2 14699  82.5466 128.7030 0014127   2.7229 357.4082 15.23533132269420
SL-14 R/B               
1 14820U 84027B   26047.68371905  .00000440  00000+0  47410-4 0  9991
2 14820  82.5387 264.7191 0019104  46.4769 313.8031 14.85954815244516
SL-8 R/B                
1 15483U 85006B   26047.85567664  .00000221  00000+0  82018-4 0  9993
2 15483  74.0458 299.4860 0019226 221.5781 210.3507 14.37772840151036
SL-12 R/B(2)            
1 15772U 85042D   26047.67098674  .00000044  00000+0  41078-4 0  9998
2 15772  71.1083 132.1362 0034419 162.0467 311.4386 14.21976470111403
SL-14 R/B               
1 15945U 85069B   26047.47290021  .00000578  00000+0  62637-4 0  9993
2 15945  82.5245  44.8863 0017133 262.3589  97.5682 14.86407369169680
SL-16 R/B               
1 16182U 85097B   26047.82247547 -.00000137  00000+0 -44516-4 0  9991
2 16182  71.0024 184.4814 0009690 283.8166 237.7564 14.16594414 84276
SL-14 R/B               
1 16496U 86006B   26047.72473420  .00000653  00000+0  66848-4 0  9993
2 16496  82.5253 279.4720 0076183 343.3826  16.4895 14.86786833146095
COSMOS 1743             
1 16719U 86034A   26047.57185001  .00035813  00000+0  49460-3 0  9996
2 16719  82.5312  95.9681 0004427  28.8094 331.3405 15.56987845176969
