CCSDS_OMM_VERS = 2.0
CREATION_DATE  = 
ORIGINATOR     = 

OBJECT_NAME    = SL-3 R/B
OBJECT_ID      = 1982-079B
CENTER_NAME    = EARTH
REF_FRAME      = TEME
TIME_SYSTEM    = UTC
MEAN_ELEMENT_THEORY = SGP/SGP4

EPOCH          = 2026-02-16T20:41:13.319808
MEAN_MOTION    = 15.24474827
ECCENTRICITY   = .0024272
INCLINATION    = 81.1445
RA_OF_ASC_NODE = 217.6640
ARG_OF_PERICENTER = 235.9072
MEAN_ANOMALY   = 123.9858

EPHEMERIS_TYPE = 0
CLASSIFICATION_TYPE = U
NORAD_CAT_ID   = 13403
ELEMENT_SET_NO = 999
REV_AT_EPOCH   = 37452
BSTAR          = .28024E-3
MEAN_MOTION_DOT = .6966E-4
MEAN_MOTION_DDOT = 0

CCSDS_OMM_VERS = 2.0
CREATION_DATE  = 
ORIGINATOR     = 

OBJECT_NAME    = SL-14 R/B
OBJECT_ID      = 1982-092B
CENTER_NAME    = EARTH
REF_FRAME      = TEME
TIME_SYSTEM    = UTC
MEAN_ELEMENT_THEORY = SGP/SGP4

EPOCH          = 2026-02-16T19:08:14.705952
MEAN_MOTION    = 14.86643228
ECCENTRICITY   = .0020644
INCLINATION    = 82.5710
RA_OF_ASC_NODE = 160.9347
ARG_OF_PERICENTER = 14.9366
MEAN_ANOMALY   = 147.7244

EPHEMERIS_TYPE = 0
CLASSIFICATION_TYPE = U
NORAD_CAT_ID   = 13553
ELEMENT_SET_NO = 999
REV_AT_EPOCH   = 32582
BSTAR          = .56338E-4
MEAN_MOTION_DOT = .526E-5
MEAN_MOTION_DDOT = 0

CCSDS_OMM_VERS = 2.0
CREATION_DATE  = 
ORIGINATOR     = 

OBJECT_NAME    = SL-3 R/B
OBJECT_ID      = 1983-010B
CENTER_NAME    = EARTH
REF_FRAME      = TEME
TIME_SYSTEM    = UTC
MEAN_ELEMENT_THEORY = SGP/SGP4

EPOCH          = 2026-02-16T09:37:46.111296
MEAN_MOTION    = 15.45565090
ECCENTRICITY   = .00184532
INCLINATION    = 81.1025
RA_OF_ASC_NODE = 28.3298
ARG_OF_PERICENTER = 117.8926
MEAN_ANOMALY   = 242.4190

EPHEMERIS_TYPE = 0
CLASSIFICATION_TYPE = U
NORAD_CAT_ID   = 13819
ELEMENT_SET_NO = 999
REV_AT_EPOCH   = 35465
BSTAR          = .34394219E-3
MEAN_MOTION_DOT = .16678E-3
MEAN_MOTION_DDOT = 0

CCSDS_OMM_VERS = 2.0
CREATION_DATE  = 
ORIGINATOR     = 

OBJECT_NAME    = SL-3 R/B
OBJECT_ID      = 1983-075B
CENTER_NAME    = EARTH
REF_FRAME      = TEME
TIME_SYSTEM    = UTC
MEAN_ELEMENT_THEORY = SGP/SGP4

EPOCH          = 2026-02-16T19:17:55.779648
MEAN_MOTION    = 15.37872809
ECCENTRICITY   = .0020134
INCLINATION    = 97.6126
RA_OF_ASC_NODE = 51.6018
ARG_OF_PERICENTER = 308.1279
MEAN_ANOMALY   = 51.8149

EPHEMERIS_TYPE = 0
CLASSIFICATION_TYPE = U
NORAD_CAT_ID   = 14208
ELEMENT_SET_NO = 999
REV_AT_EPOCH   = 32694
BSTAR          = .33168E-3
MEAN_MOTION_DOT = .12349E-3
MEAN_MOTION_DDOT = 0

CCSDS_OMM_VERS = 2.0
CREATION_DATE  = 
ORIGINATOR     = 

OBJECT_NAME    = COSMOS 1536
OBJECT_ID      = 1984-013A
CENTER_NAME    = EARTH
REF_FRAME      = TEME
TIME_SYSTEM    = UTC
MEAN_ELEMENT_THEORY = SGP/SGP4

EPOCH          = 2026-02-16T16:54:35.586720
MEAN_MOTION    = 15.23533132
ECCENTRICITY   = .0014127
INCLINATION    = 82.5466
RA_OF_ASC_NODE = 128.7030
ARG_OF_PERICENTER = 2.7229
MEAN_ANOMALY   = 357.4082

EPHEMERIS_TYPE = 0
CLASSIFICATION_TYPE = U
NORAD_CAT_ID   = 14699
ELEMENT_SET_NO = 999
REV_AT_EPOCH   = 26942
BSTAR          = .25571E-3
MEAN_MOTION_DOT = .6155E-4
MEAN_MOTION_DDOT = 0

CCSDS_OMM_VERS = 2.0
CREATION_DATE  = 
ORIGINATOR     = 

OBJECT_NAME    = SL-14 R/B
OBJECT_ID      = 1984-027B
CENTER_NAME    = EARTH
REF_FRAME      = TEME
TIME_SYSTEM    = UTC
MEAN_ELEMENT_THEORY = SGP/SGP4

EPOCH          = 2026-02-16T16:24:33.325920
MEAN_MOTION    = 14.85954815
ECCENTRICITY   = .0019104
INCLINATION    = 82.5387
RA_OF_ASC_NODE = 264.7191
ARG_OF_PERICENTER = 46.4769
MEAN_ANOMALY   = 313.8031

EPHEMERIS_TYPE = 0
CLASSIFICATION_TYPE = U
NORAD_CAT_ID   = 14820
ELEMENT_SET_NO = 999
REV_AT_EPOCH   = 24451
BSTAR          = .4741E-4
MEAN_MOTION_DOT = .44E-5
MEAN_MOTION_DDOT = 0

CCSDS_OMM_VERS = 2.0
CREATION_DATE  = 
ORIGINATOR     = 

OBJECT_NAME    = SL-8 R/B
OBJECT_ID      = 1985-006B
CENTER_NAME    = EARTH
REF_FRAME      = TEME
TIME_SYSTEM    = UTC
MEAN_ELEMENT_THEORY = SGP/SGP4

EPOCH          = 2026-02-16T20:32:10.461696
MEAN_MOTION    = 14.37772840
ECCENTRICITY   = .0019226
INCLINATION    = 74.0458
RA_OF_ASC_NODE = 299.4860
ARG_OF_PERICENTER = 221.5781
MEAN_ANOMALY   = 210.3507

EPHEMERIS_TYPE = 0
CLASSIFICATION_TYPE = U
NORAD_CAT_ID   = 15483
ELEMENT_SET_NO = 999
REV_AT_EPOCH   = 15103
BSTAR          = .82018E-4
MEAN_MOTION_DOT = .221E-5
MEAN_MOTION_DDOT = 0

CCSDS_OMM_VERS = 2.0
CREATION_DATE  = 
ORIGINATOR     = 

OBJECT_NAME    = SL-12 R/B(2)
OBJECT_ID      = 1985-042D
CENTER_NAME    = EARTH
REF_FRAME      = TEME
TIME_SYSTEM    = UTC
MEAN_ELEMENT_THEORY = SGP/SGP4

EPOCH          = 2026-02-16T16:06:13.254336
MEAN_MOTION    = 14.21976470
ECCENTRICITY   = .0034419
INCLINATION    = 71.1083
RA_OF_ASC_NODE = 132.1362
ARG_OF_PERICENTER = 162.0467
MEAN_ANOMALY   = 311.4386

EPHEMERIS_TYPE = 0
CLASSIFICATION_TYPE = U
NORAD_CAT_ID   = 15772
ELEMENT_SET_NO = 999
REV_AT_EPOCH   = 11140
BSTAR          = .41078E-4
MEAN_MOTION_DOT = .44E-6
MEAN_MOTION_DDOT = 0

CCSDS_OMM_VERS = 2.0
CREATION_DATE  = 
ORIGINATOR     = 

OBJECT_NAME    = SL-14 R/B
OBJECT_ID      = 1985-069B
CENTER_NAME    = EARTH
REF_FRAME      = TEME
TIME_SYSTEM    = UTC
MEAN_ELEMENT_THEORY = SGP/SGP4

EPOCH          = 2026-02-16T11:20:58.578144
MEAN_MOTION    = 14.86407369
ECCENTRICITY   = .00171336
INCLINATION    = 82.5245
RA_OF_ASC_NODE = 44.8863
ARG_OF_PERICENTER = 262.3589
MEAN_ANOMALY   = 97.5682

EPHEMERIS_TYPE = 0
CLASSIFICATION_TYPE = U
NORAD_CAT_ID   = 15945
ELEMENT_SET_NO = 999
REV_AT_EPOCH   = 16968
BSTAR          = .6263715E-4
MEAN_MOTION_DOT = .578E-5
MEAN_MOTION_DDOT = 0

CCSDS_OMM_VERS = 2.0
CREATION_DATE  = 
ORIGINATOR     = 

OBJECT_NAME    = SL-16 R/B
OBJECT_ID      = 1985-097B
CENTER_NAME    = EARTH
REF_FRAME      = TEME
TIME_SYSTEM    = UTC
MEAN_ELEMENT_THEORY = SGP/SGP4

EPOCH          = 2026-02-16T19:44:21.880608
MEAN_MOTION    = 14.16594414
ECCENTRICITY   = .000969
INCLINATION    = 71.0024
RA_OF_ASC_NODE = 184.4814
ARG_OF_PERICENTER = 283.8166
MEAN_ANOMALY   = 237.7564

EPHEMERIS_TYPE = 0
CLASSIFICATION_TYPE = U
NORAD_CAT_ID   = 16182
ELEMENT_SET_NO = 999
REV_AT_EPOCH   = 8427
BSTAR          = -.44516E-4
MEAN_MOTION_DOT = -.137E-5
MEAN_MOTION_DDOT = 0

CCSDS_OMM_VERS = 2.0
CREATION_DATE  = 
ORIGINATOR     = 

OBJECT_NAME    = SL-14 R/B
OBJECT_ID      = 1986-006B
CENTER_NAME    = EARTH
REF_FRAME      = TEME
TIME_SYSTEM    = UTC
MEAN_ELEMENT_THEORY = SGP/SGP4

EPOCH          = 2026-02-16T17:23:37.034880
MEAN_MOTION    = 14.86786833
ECCENTRICITY   = .0076183
INCLINATION    = 82.5253
RA_OF_ASC_NODE = 279.4720
ARG_OF_PERICENTER = 343.3826
MEAN_ANOMALY   = 16.4895

EPHEMERIS_TYPE = 0
CLASSIFICATION_TYPE = U
NORAD_CAT_ID   = 16496
ELEMENT_SET_NO = 999
REV_AT_EPOCH   = 14609
BSTAR          = .66848E-4
MEAN_MOTION_DOT = .653E-5
MEAN_MOTION_DDOT = 0

CCSDS_OMM_VERS = 2.0
CREATION_DATE  = 
ORIGINATOR     = 

OBJECT_NAME    = COSMOS 1743
OBJECT_ID      = 1986-034A
CENTER_NAME    = EARTH
REF_FRAME      = TEME
TIME_SYSTEM    = UTC
MEAN_ELEMENT_THEORY = SGP/SGP4

EPOCH          = 2026-02-16T13:43:27.840864
MEAN_MOTION    = 15.56987845
ECCENTRICITY   = .0004427
INCLINATION    = 82.5312
RA_OF_ASC_NODE = 95.9681
ARG_OF_PERICENTER = 28.8094
MEAN_ANOMALY   = 331.3405

EPHEMERIS_TYPE = 0
CLASSIFICATION_TYPE = U
NORAD_CAT_ID   = 16719
ELEMENT_SET_NO = 999
REV_AT_EPOCH   = 17696
BSTAR          = .4946E-3
MEAN_MOTION_DOT = .35813E-3
MEAN_MOTION_DDOT = 0

